NORAD_CAT_ID,OBJECT_NAME,OBJECT_TYPE,EPOCH,MEAN_MOTION,ECCENTRICITY,INCLINATION,RA_OF_ASC_NODE,ARG_OF_PERICENTER,MEAN_ANOMALY,BSTAR,MEAN_MOTION_DOT,MEAN_MOTION_DDOT,TLE_LINE0,TLE_LINE1,TLE_LINE2,SEMIMAJOR_AXIS,PERIOD,APOGEE,PERIGEE,DECAYED
52136.0,STARLINK-3720,PAYLOAD,2022-04-09 20:00:01,15.73062854,0.0001332,53.218,36.9644,103.928,57.9875,0.00135,0.00192106,0.0,0 STARLINK-3720,1 52136U 22029BA  22099.83334491  .00192106  00000-0  13500-2 0  9999,2 52136  53.2180  36.9644 0001332 103.9280  57.9875 15.73062854  4660,6728.286,91.541,351.047,349.255,0.0
52136.0,STARLINK-3720,PAYLOAD,2022-04-09 22:00:00,15.7310077,0.0001273,53.2179,36.5527,102.0258,172.0838,0.0011899,0.00169056,0.0,0 STARLINK-3720,1 52136U 22029BA  22099.91667824  .00169056  00000-0  11899-2 0  9994,2 52136  53.2179  36.5527 0001273 102.0258 172.0838 15.73100770  3716,6728.178000000001,91.539,350.9,349.18699999999984,0.0
52136.0,STARLINK-3720,PAYLOAD,2022-04-10 12:00:00,15.73231418,8.51e-05,53.2174,33.6665,103.6759,235.9774,-0.00067729,-0.00094731,0.0,0 STARLINK-3720,1 52136U 22029BA  22100.50001157 -.00094731  00000-0 -67729-3 0  9996,2 52136  53.2174  33.6665 0000851 103.6759 235.9774 15.73231418  4764,6727.806,91.531,350.24300000000005,349.098,0.0
52136.0,STARLINK-3720,PAYLOAD,2022-04-10 14:00:01,15.73204213,8.55e-05,53.2176,33.2537,110.1003,341.7954,-0.00046465,-0.00065334,0.0,0 STARLINK-3720,1 52136U 22029BA  22100.58334491 -.00065334  00000-0 -46465-3 0  9995,2 52136  53.2176  33.2537 0000855 110.1003 341.7954 15.73204213  3712,6727.8830000000025,91.533,350.3230000000001,349.173,0.0
52136.0,STARLINK-3720,PAYLOAD,2022-04-10 22:00:00,15.73177785,0.000101,53.2179,31.6041,112.5658,68.2336,-0.00057797,-0.00080879,0.0,0 STARLINK-3720,1 52136U 22029BA  22100.91667824 -.00080879  00000-0 -57797-3 0  9992,2 52136  53.2179  31.6041 0001010 112.5658  68.2336 15.73177785  3687,6727.959,91.534,350.50300000000016,349.144,0.0
52136.0,STARLINK-3720,PAYLOAD,2022-04-11 04:00:01,15.72887107,0.0001791,53.218,30.3698,93.5668,63.5483,7.4458e-05,9.705e-05,0.0,0 STARLINK-3720,1 52136U 22029BA  22101.16668981  .00009705  00000-0  74458-4 0  9996,2 52136  53.2180  30.3698 0001791  93.5668  63.5483 15.72887107  4876,6728.7869999999975,91.551,351.858,349.44699999999995,0.0
52136.0,STARLINK-3720,PAYLOAD,2022-04-11 12:00:00,15.72891886,0.0001999,53.2178,28.7196,96.843,148.7397,0.0014405999999999,0.00203839,0.0,0 STARLINK-3720,1 52136U 22029BA  22101.50001157  .00203839  00000-0  14406-2 0  9999,2 52136  53.2178  28.7196 0001999  96.8430 148.7397 15.72891886  4925,6728.774,91.551,351.9840000000001,349.2940000000001,0.0
52136.0,STARLINK-3720,PAYLOAD,2022-04-11 14:00:01,15.72892029,0.0002135,53.2179,28.307,99.7255,258.0084,0.0021189,0.0030374,0.0,0 STARLINK-3720,1 52136U 22029BA  22101.58334491  .00303740  00000-0  21189-2 0  9995,2 52136  53.2179  28.3070 0002135  99.7255 258.0084 15.72892029  3706,6728.773,91.551,352.075,349.202,0.0
52136.0,STARLINK-3720,PAYLOAD,2022-04-11 20:00:01,15.73059653,0.0002311,53.218,27.0704,99.9485,234.2597,0.0021637,0.00312742,0.0,0 STARLINK-3720,1 52136U 22029BA  22101.83334491  .00312742  00000-0  21637-2 0  9993,2 52136  53.2180  27.0704 0002311  99.9485 234.2597 15.73059653  4975,6728.295,91.541,351.715,348.605,0.0
52136.0,STARLINK-3720,PAYLOAD,2022-04-11 22:00:00,15.73144907,0.0002276,53.2179,26.6588,99.9642,346.4298,0.0016274999999999,0.0023371,0.0,0 STARLINK-3720,1 52136U 22029BA  22101.91667824  .00233710  00000-0  16275-2 0  9990,2 52136  53.2179  26.6588 0002276  99.9642 346.4298 15.73144907  3704,6728.052,91.536,351.449,348.386,0.0
52136.0,STARLINK-3720,PAYLOAD,2022-04-12 12:00:00,15.73540567,0.00015,53.2175,23.7717,107.208,44.9736,-0.00021085,-0.00030542,0.0,0 STARLINK-3720,1 52136U 22029BA  22102.50001157 -.00030542  00000-0 -21085-3 0  9993,2 52136  53.2175  23.7717 0001500 107.2080  44.9736 15.73540567  5071,6726.924,91.513,349.798,347.78,0.0
52136.0,STARLINK-3720,PAYLOAD,2022-04-12 14:00:01,15.73542565,0.0001419999999999,53.2176,23.3588,111.0365,153.4763,-0.00028964,-0.00041671,0.0,0 STARLINK-3720,1 52136U 22029BA  22102.58334491 -.00041671  00000-0 -28964-3 0  9999,2 52136  53.2176  23.3588 0001420 111.0365 153.4763 15.73542565  3708,6726.919,91.513,349.73900000000015,347.82800000000015,0.0
52136.0,STARLINK-3720,PAYLOAD,2022-04-12 20:00:01,15.73537088,0.0001443,53.2179,22.1211,114.0992,127.3963,-0.00093127,-0.00131182,0.0,0 STARLINK-3720,1 52136U 22029BA  22102.83334491 -.00131182  00000-0 -93127-3 0  9997,2 52136  53.2179  22.1211 0001443 114.0992 127.3963 15.73537088  5130,6726.934,91.514,349.77,347.829,0.0
52136.0,STARLINK-3720,PAYLOAD,2022-04-12 22:00:00,15.73543761,0.0001356,53.2179,21.7091,110.9223,242.8955,-0.0014321,-0.00199832,0.0,0 STARLINK-3720,1 52136U 22029BA  22102.91667824 -.00199832  00000-0 -14321-2 0  9999,2 52136  53.2179  21.7091 0001356 110.9223 242.8955 15.73543761  3706,6726.915,91.513,349.69199999999995,347.86800000000005,0.0
52136.0,STARLINK-3720,PAYLOAD,2022-04-13 12:00:00,15.73198189,0.0001655,53.2176,18.8154,102.0885,317.9806,6.1672e-05,8.042e-05,0.0,0 STARLINK-3720,1 52136U 22029BA  22103.50001157  .00008042  00000-0  61672-4 0  9999,2 52136  53.2176  18.8154 0001655 102.0885 317.9806 15.73198189  5237,6727.9,91.533,350.879,348.652,0.0
52136.0,STARLINK-3720,PAYLOAD,2022-04-13 14:00:03,15.73204142,0.0001716,53.2175,18.4022,101.5293,70.9011,8.111e-06,5.18e-06,0.0,0 STARLINK-3720,1 52136U 22029BA  22103.58336806  .00000518  00000-0  81110-5 0  9999,2 52136  53.2175  18.4022 0001716 101.5293  70.9011 15.73204142  3713,6727.8830000000025,91.533,350.903,348.594,0.0
52136.0,STARLINK-3720,PAYLOAD,2022-04-13 20:00:01,15.73308122,0.0001193,53.218,17.1715,115.2555,33.8597,-0.00055257,-0.00077812,0.0,0 STARLINK-3720,1 52136U 22029BA  22103.83335648 -.00077812  00000-0 -55257-3 0  9994,2 52136  53.2180  17.1715 0001193 115.2555  33.8597 15.73308122  5280,6727.587,91.527,350.255,348.649,0.0
52136.0,STARLINK-3720,PAYLOAD,2022-04-13 22:00:00,15.73301449,0.0001166,53.2179,16.7598,111.7215,149.5889,-0.00066425,-0.00093218,0.0,0 STARLINK-3720,1 52136U 22029BA  22103.91667824 -.00093218  00000-0 -66425-3 0  9994,2 52136  53.2179  16.7598 0001166 111.7215 149.5889 15.73301449  3705,6727.606,91.527,350.255,348.68699999999984,0.0
52136.0,STARLINK-3720,PAYLOAD,2022-04-14 14:00:01,15.73152271,0.0001207,53.2175,13.4597,118.5997,320.683,0.00041471,0.00057864,0.0,0 STARLINK-3720,1 52136U 22029BA  22104.58334491  .00057864  00000-0  41471-3 0  9998,2 52136  53.2175  13.4597 0001207 118.5997 320.6830 15.73152271  3707,6728.031,91.536,350.708,349.084,0.0
52136.0,STARLINK-3720,PAYLOAD,2022-04-14 20:00:01,15.73214736,0.0001289,53.2179,12.2233,114.8126,301.1326,-0.0006538,-0.00091442,0.0,0 STARLINK-3720,1 52136U 22029BA  22104.83334491 -.00091442  00000-0 -65380-3 0  9993,2 52136  53.2179  12.2233 0001289 114.8126 301.1326 15.73214736  5440,6727.853,91.532,350.585,348.851,0.0
52136.0,STARLINK-3720,PAYLOAD,2022-04-14 22:00:00,15.73182696,0.0001284999999999,53.2178,11.8115,110.3127,57.871,-0.00035891,-0.0005065,0.0,0 STARLINK-3720,1 52136U 22029BA  22104.91667824 -.00050650  00000-0 -35891-3 0  9991,2 52136  53.2178  11.8115 0001285 110.3127  57.8710 15.73182696  3710,6727.945,91.534,350.6740000000001,348.945,0.0
52136.0,STARLINK-3720,PAYLOAD,2022-04-15 04:00:00,15.73155793,0.0001228,53.2179,10.5757,105.4813,39.4134,0.00096236,0.00136395,0.0,0 STARLINK-3720,1 52136U 22029BA  22105.16667824  .00136395  00000-0  96236-3 0  9998,2 52136  53.2179  10.5757 0001228 105.4813  39.4134 15.73155793  5494,6728.021,91.536,350.712,349.06,0.0
52136.0,STARLINK-3720,PAYLOAD,2022-04-15 11:00:37,15.73210359,0.0001524,53.2181,9.1272,126.832,233.284,1.7561e-05,1.846e-05,0.0,0 STARLINK-3720,1 52136U 22029BA  22105.45876565  .00001846  00000-0  17561-4 0  9991,2 52136  53.2181   9.1272 0001524 126.8320 233.2840 15.73210359  5546,6727.866,91.533,350.756,348.705,0.0
52136.0,STARLINK-3720,PAYLOAD,2022-04-15 14:00:01,15.73265876,0.0001286,53.2176,8.5116,116.6977,229.4027,0.00067221,0.00095062,0.0,0 STARLINK-3720,1 52136U 22029BA  22105.58334491  .00095062  00000-0  67221-3 0  9992,2 52136  53.2176   8.5116 0001286 116.6977 229.4027 15.73265876  3704,6727.706999999999,91.529,350.43800000000016,348.707,0.0
52136.0,STARLINK-3720,PAYLOAD,2022-04-15 20:00:01,15.73324134,0.0001336,53.2177,7.2752,115.7043,207.1412,-0.00044294,-0.00062653,0.0,0 STARLINK-3720,1 52136U 22029BA  22105.83334491 -.00062653  00000-0 -44294-3 0  9997,2 52136  53.2177   7.2752 0001336 115.7043 207.1412 15.73324134  5602,6727.541,91.526,350.305,348.50699999999995,0.0
52136.0,STARLINK-3720,PAYLOAD,2022-04-15 22:00:00,15.73313647,0.0001286,53.2174,6.8634,112.5559,322.5581,-0.0004714,-0.00066578,0.0,0 STARLINK-3720,1 52136U 22029BA  22105.91667824 -.00066578  00000-0 -47140-3 0  9998,2 52136  53.2174   6.8634 0001286 112.5559 322.5581 15.73313647  3686,6727.571,91.527,350.301,348.571,0.0
52136.0,STARLINK-3720,PAYLOAD,2022-04-16 04:00:00,15.73272014,0.0001076,53.2171,5.6273,109.2568,302.6039,-0.0010683,-0.00148386,0.0,0 STARLINK-3720,1 52136U 22029BA  22106.16667824 -.00148386  00000-0 -10683-2 0  9995,2 52136  53.2171   5.6273 0001076 109.2568 302.6039 15.73272014  5657,6727.69,91.529,350.279,348.831,0.0
52136.0,STARLINK-3720,PAYLOAD,2022-04-16 12:00:02,15.73110196,0.0001009,53.217,3.9757,123.8726,17.0048,-0.00079376,-0.00110144,0.0,0 STARLINK-3720,1 52136U 22029BA  22106.50002315 -.00110144  00000-0 -79376-3 0  9997,2 52136  53.2170   3.9757 0001009 123.8726  17.0048 15.73110196  5703,6728.151,91.538,350.695,349.337,0.0
52136.0,STARLINK-3720,PAYLOAD,2022-04-16 14:00:01,15.73031705,0.0001123,53.2169,3.5631,122.703,130.3267,0.00024569,0.00033752,0.0,0 STARLINK-3720,1 52136U 22029BA  22106.58334491  .00033752  00000-0  24569-3 0  9999,2 52136  53.2169   3.5631 0001123 122.7030 130.3267 15.73031705  3709,6728.375,91.543,350.996,349.4840000000001,0.0
